OBJECT_NAME,OBJECT_ID,EPOCH,MEAN_MOTION,ECCENTRICITY,INCLINATION,RA_OF_ASC_NODE,ARG_OF_PERICENTER,MEAN_ANOMALY,EPHEMERIS_TYPE,CLASSIFICATION_TYPE,NORAD_CAT_ID,ELEMENT_SET_NO,REV_AT_EPOCH,BSTAR,MEAN_MOTION_DOT,MEAN_MOTION_DDOT
ANGOSAT 2,2022-131A,2026-06-25T22:58:29.455968,1.00273515,.00007206,0.0307,103.2080,356.0057,182.4991,0,U,54033,999,1356,0,.146E-5,0
EUTELSAT HOTBIRD 13F,2022-134A,2026-06-27T01:33:38.765664,1.00272929,.00017936,0.0442,294.9090,73.4867,303.2161,0,U,54048,999,1347,0,.99E-6,0
LDPE-2,2022-144A,2026-06-27T10:29:50.579808,1.00538009,.000211,5.6372,63.5708,92.4410,129.2257,0,U,54219,999,1194,0,.115E-5,0
EUTELSAT HOTBIRD 13G,2022-146A,2026-06-26T12:36:57.976128,1.00270897,.0002041,0.0522,212.2213,321.3793,303.2805,0,U,54225,999,756,0,.98E-6,0
ZHONGXING-19,2022-148A,2026-06-27T12:32:38.721696,1.00272759,.0002876,0.0337,79.1692,35.2719,152.5593,0,U,54230,999,1348,0,-.69E-6,0
GALAXY 31 (G-31),2022-153A,2026-06-27T12:43:33.644064,1.00270062,.0001649,0.0210,29.1576,72.8926,243.4747,0,U,54243,999,723,0,0,0
GALAXY 32 (G-32),2022-153B,2026-06-27T08:39:00.666432,1.00271924,.0002081,0.0131,34.8965,12.6282,266.7021,0,U,54244,999,1324,0,-.163E-5,0
EUTELSAT 10B,2022-157A,2026-06-27T12:33:06.582240,1.00283833,.000175,0.0632,98.2666,5.2021,10.4205,0,U,54259,999,1313,0,.82E-6,0
GALAXY 35 (G-35),2022-170A,2026-06-27T12:03:46.893312,1.00269464,.0002224,0.0204,18.2658,77.6413,267.5403,0,U,54741,999,1299,0,0,0
GALAXY 36 (G-36),2022-170B,2026-06-27T12:05:01.772736,1.00271431,.0002885,0.0347,118.0163,331.5706,278.2858,0,U,54742,999,1287,0,-.173E-5,0
METEOSAT-12 (MTG-I1),2022-170C,2026-06-27T07:22:16.560768,1.00275515,.0003661,0.7496,24.5845,71.9897,289.0910,0,U,54743,999,1307,0,.4E-7,0
APSTAR-6E,2023-005A,2026-06-27T01:09:56.174976,1.00269291,.00004168,0.0335,251.2211,290.2474,245.1730,0,U,55239,999,1878,0,-.306E-5,0
USA 342,2023-008A,2026-06-25T07:07:38.771328,1.00268501,.0000253,0.0025,336.7217,165.3803,262.0787,0,U,55263,999,1259,0,0,0
LDPE-3A,2023-008B,2026-06-27T11:47:25.960416,0.99148902,.0001508,2.3742,81.5472,51.5075,168.6320,0,U,55264,999,1191,0,.41E-6,0
ELEKTRO-L 4,2023-016A,2026-06-26T18:37:16.692096,1.00271439,.0001,0.0838,148.5435,34.5558,176.8960,0,U,55506,999,1243,0,-.47E-6,0
AMAZONAS NEXUS,2023-017A,2026-06-27T12:13:01.006752,1.00270847,.0005193,0.0367,38.2979,36.5350,323.0377,0,U,55508,999,714,0,-.271E-5,0
ZHONGXING-26,2023-023A,2026-06-26T06:18:12.845088,1.00274356,.0003378,0.0690,71.1877,21.9123,40.9482,0,U,55686,999,1232,0,-.342E-5,0
GAOFEN-13 02,2023-036A,2026-06-27T08:04:22.501056,1.00269276,.0003728,1.0224,2.4150,339.7513,202.6085,0,U,55912,999,1219,0,-.208E-5,0
SES-18,2023-038A,2026-06-27T12:01:02.156160,1.00272257,.0000621,0.0341,281.1732,222.4698,209.1222,0,U,55970,999,1220,0,-.89E-6,0
SES-19,2023-038B,2026-06-27T11:51:55.530144,1.00272853,.0001998,0.0123,329.0623,128.9317,220.6767,0,U,55971,999,1219,0,.99E-6,0
INTELSAT 40E (IS-40E),2023-052A,2026-06-27T08:39:00.666432,1.00272208,.0002407,0.0141,69.6718,55.6617,188.8921,0,U,56174,999,1192,0,-.163E-5,0
VIASAT-3 F1,2023-060A,2026-06-27T12:05:01.772736,1.00270507,.0001222,0.0222,1.7290,106.6355,259.5290,0,U,56370,999,1153,0,0,0
ARCTURUS,2023-060B,2026-06-26T21:28:35.858208,1.00599177,.0000384,2.7990,79.8193,207.4908,27.3984,0,U,56371,999,1155,0,-.176E-5,0
GS-1,2023-060C,2026-06-25T21:34:47.877600,1.00272191,.00037625,2.7474,79.7328,280.4751,326.9793,0,U,56372,999,762,0,-.216E-5,0
BEIDOU-3 G4,2023-066A,2026-06-27T13:31:47.129952,1.00270912,.0004851,0.4753,334.1322,175.3330,109.2073,0,U,56564,999,1149,0,-.269E-5,0
ARABSAT-7B (BADR-8),2023-075A,2026-06-27T07:29:53.330784,1.00271063,.0004176,0.0742,28.2577,3.9766,21.6527,0,U,56757,999,1121,0,.156E-5,0
NVS-01 (IRNSS-1J),2023-076A,2026-06-27T13:21:38.683008,1.00274532,.0002805,2.1420,243.8720,11.7119,350.0416,0,U,56759,999,1122,0,-.321E-5,0
NUSANTARA TIGA (SATRIA),2023-086A,2026-06-27T11:29:18.987936,1.00269239,.0002713,0.0359,0.4000,344.8585,248.6567,0,U,57045,999,986,0,-.223E-5,0
H2SAT (HEINRICH HERTZ),2023-093A,2026-06-25T07:28:10.234848,1.00269986,.0000848,0.0482,107.4304,17.0766,261.6799,0,U,57213,999,1099,0,.11E-6,0
SYRACUSE 4B,2023-093B,2026-06-27T01:41:38.729760,1.00268400,.00004568,0.0057,99.0122,61.9682,133.1490,0,U,57214,999,706,0,-.43E-6,0
