ANGOSAT 2               
1 54033U 22131A   26176.95728537  .00000146  00000+0  00000+0 0  9991
2 54033   0.0307 103.2080 0000720 356.0057 182.4991  1.00273515 13569
EUTELSAT HOTBIRD 13F    
1 54048U 22134A   26178.06503201  .00000099  00000+0  00000+0 0  9990
2 54048   0.0442 294.9090 0001793  73.4867 303.2161  1.00272929 13474
LDPE-2                  
1 54219U 22144A   26178.43739097  .00000115  00000+0  00000+0 0  9995
2 54219   5.6372  63.5708 0002110  92.4410 129.2257  1.00538009 11948
EUTELSAT HOTBIRD 13G    
1 54225U 22146A   26177.52567102  .00000098  00000+0  00000+0 0  9999
2 54225   0.0522 212.2213 0002041 321.3793 303.2805  1.00270897  7560
ZHONGXING-19            
1 54230U 22148A   26178.52267039 -.00000069  00000+0  00000+0 0  9993
2 54230   0.0337  79.1692 0002876  35.2719 152.5593  1.00272759 13482
GALAXY 31 (G-31)        
1 54243U 22153A   26178.53025051  .00000000  00000+0  00000+0 0  9994
2 54243   0.0210  29.1576 0001649  72.8926 243.4747  1.00270062  7238
GALAXY 32 (G-32)        
1 54244U 22153B   26178.36042438 -.00000163  00000+0  00000+0 0  9995
2 54244   0.0131  34.8965 0002081  12.6282 266.7021  1.00271924 13243
EUTELSAT 10B            
1 54259U 22157A   26178.52299285  .00000082  00000+0  00000+0 0  9996
2 54259   0.0632  98.2666 0001750   5.2021  10.4205  1.00283833 13136
GALAXY 35 (G-35)        
1 54741U 22170A   26178.50262608  .00000000  00000+0  00000+0 0  9994
2 54741   0.0204  18.2658 0002224  77.6413 267.5403  1.00269464 12997
GALAXY 36 (G-36)        
1 54742U 22170B   26178.50349274 -.00000173  00000+0  00000+0 0  9992
2 54742   0.0347 118.0163 0002885 331.5706 278.2858  1.00271431 12873
METEOSAT-12 (MTG-I1)    
1 54743U 22170C   26178.30713612  .00000004  00000+0  00000+0 0  9994
2 54743   0.7496  24.5845 0003661  71.9897 289.0910  1.00275515 13072
APSTAR-6E               
1 55239U 23005A   26178.04856684 -.00000306  00000+0  00000+0 0  9997
2 55239   0.0335 251.2211 0000416 290.2474 245.1730  1.00269291 18786
USA 342                 
1 55263U 23008A   26176.29697652  .00000000  00000+0  00000+0 0  9990
2 55263   0.0025 336.7217 0000253 165.3803 262.0787  1.00268501 12597
LDPE-3A                 
1 55264U 23008B   26178.49127269  .00000041  00000+0  00000+0 0  9992
2 55264   2.3742  81.5472 0001508  51.5075 168.6320  0.99148902 11916
ELEKTRO-L 4             
1 55506U 23016A   26177.77588764 -.00000047  00000+0  00000+0 0  9998
2 55506   0.0838 148.5435 0001000  34.5558 176.8960  1.00271439 12437
AMAZONAS NEXUS          
1 55508U 23017A   26178.50903943 -.00000271  00000+0  00000+0 0  9992
2 55508   0.0367  38.2979 0005193  36.5350 323.0377  1.00270847  7145
ZHONGXING-26            
1 55686U 23023A   26177.26264867 -.00000342  00000+0  00000+0 0  9992
2 55686   0.0690  71.1877 0003378  21.9123  40.9482  1.00274356 12320
GAOFEN-13 02            
1 55912U 23036A   26178.33637154 -.00000208  00000+0  00000+0 0  9991
2 55912   1.0224   2.4150 0003728 339.7513 202.6085  1.00269276 12195
SES-18                  
1 55970U 23038A   26178.50071940 -.00000089  00000+0  00000+0 0  9998
2 55970   0.0341 281.1732 0000621 222.4698 209.1222  1.00272257 12201
SES-19                  
1 55971U 23038B   26178.49439271  .00000099  00000+0  00000+0 0  9992
2 55971   0.0123 329.0623 0001998 128.9317 220.6767  1.00272853 12199
INTELSAT 40E (IS-40E)   
1 56174U 23052A   26178.36042438 -.00000163  00000+0  00000+0 0  9998
2 56174   0.0141  69.6718 0002407  55.6617 188.8921  1.00272208 11923
VIASAT-3 F1             
1 56370U 23060A   26178.50349274  .00000000  00000+0  00000+0 0  9998
2 56370   0.0222   1.7290 0001222 106.6355 259.5290  1.00270507 11535
ARCTURUS                
1 56371U 23060B   26177.89485947 -.00000176  00000+0  00000+0 0  9993
2 56371   2.7990  79.8193 0000384 207.4908  27.3984  1.00599177 11557
GS-1                    
1 56372U 23060C   26176.89916525 -.00000216  00000+0  00000+0 0  9999
2 56372   2.7474  79.7328 0003762 280.4751 326.9793  1.00272191  7627
BEIDOU-3 G4             
1 56564U 23066A   26178.56373993 -.00000269  00000+0  00000+0 0  9998
2 56564   0.4753 334.1322 0004851 175.3330 109.2073  1.00270912 11494
ARABSAT-7B (BADR-8)     
1 56757U 23075A   26178.31242281  .00000156  00000+0  00000+0 0  9994
2 56757   0.0742  28.2577 0004176   3.9766  21.6527  1.00271063 11213
NVS-01 (IRNSS-1J)       
1 56759U 23076A   26178.55669772 -.00000321  00000+0  00000+0 0  9996
2 56759   2.1420 243.8720 0002805  11.7119 350.0416  1.00274532 11223
NUSANTARA TIGA (SATRIA) 
1 57045U 23086A   26178.47869199 -.00000223  00000+0  00000+0 0  9993
2 57045   0.0359   0.4000 0002713 344.8585 248.6567  1.00269239  9867
H2SAT (HEINRICH HERTZ)  
1 57213U 23093A   26176.31122957  .00000011  00000+0  00000+0 0  9997
2 57213   0.0482 107.4304 0000848  17.0766 261.6799  1.00269986 10990
SYRACUSE 4B             
1 57214U 23093B   26178.07058715 -.00000043  00000+0  00000+0 0  9999
2 57214   0.0057  99.0122 0000456  61.9682 133.1490  1.00268400  7068
